[{"OBJECT_NAME":"STARLINK-31026","OBJECT_ID":"2023-191A","EPOCH":"2026-03-09T18:55:44.334912","MEAN_MOTION":15.02546182,"ECCENTRICITY":0.00010954,"INCLINATION":43.0033,"RA_OF_ASC_NODE":106.5212,"ARG_OF_PERICENTER":273.098,"MEAN_ANOMALY":86.9737,"EPHEMERIS_TYPE":0,"CLASSIFICATION_TYPE":"U","NORAD_CAT_ID":58508,"ELEMENT_SET_NO":999,"REV_AT_EPOCH":12544,"BSTAR":-0.00010273813,"MEAN_MOTION_DOT":-1.591e-5,"MEAN_MOTION_DDOT":0},{"OBJECT_NAME":"STUDSAT","OBJECT_ID":"2010-035B","EPOCH":"2026-03-09T18:37:00.077376","MEAN_MOTION":15.04045903,"ECCENTRICITY":0.00117838,"INCLINATION":98.1026,"RA_OF_ASC_NODE":330.9975,"ARG_OF_PERICENTER":15.8359,"MEAN_ANOMALY":344.3232,"EPHEMERIS_TYPE":0,"CLASSIFICATION_TYPE":"U","NORAD_CAT_ID":36796,"ELEMENT_SET_NO":999,"REV_AT_EPOCH":85020,"BSTAR":0.00039642444,"MEAN_MOTION_DOT":5.425e-5,"MEAN_MOTION_DDOT":0}]
